19163,COSMOS 1946 [GLONASS],1988,675.73,-1.0,-,64.71,Inactive,0,MEO,Kazakhstan,Russia/USSR,Unknown,Unknown,Unknown,1 19163U 88043A   25067.99777010  .00000037  00000+0  00000+0 0  9991,2 19163  64.7100  89.5190 0003636  92.1728  85.0162  2.13103104285685,2.13103104,0.0003636,MEO
19164,COSMOS 1947 [GLONASS],1988,675.73,-1.0,-,64.71,Inactive,0,MEO,Kazakhstan,Russia/USSR,Unknown,Unknown,Unknown,1 19164U 88043B   25067.28916087  .00000032  00000+0  00000+0 0  9998,2 19164  64.7060  89.4640 0024277 223.8920 195.6973  2.13103994281378,2.13103994,0.0024277,MEO
19165,COSMOS 1948 [GLONASS],1988,675.73,-1.0,-,64.7,Inactive,0,MEO,Kazakhstan,Russia/USSR,Unknown,Unknown,Unknown,1 19165U 88043C   25067.98280697  .00000037  00000+0  00000+0 0  9992,2 19165  64.6973  89.2432 0004458 298.5374 195.1180  2.13102978286099,2.13102978,0.0004458,MEO
19501,COSMOS 1970 [GLONASS],1988,675.73,-1.0,-,65.5,Inactive,0,MEO,Kazakhstan,Russia/USSR,Unknown,Unknown,Unknown,1 19501U 88085A   25069.43760080 -.00000070  00000+0  00000+0 0  9991,2 19501  65.4952 330.2309 0010127  42.3519 140.7111  2.13102006283894,2.13102006,0.0010127,MEO
19503,COSMOS 1972 [GLONASS],1988,675.73,-1.0,-,65.53,Inactive,0,MEO,Kazakhstan,Russia/USSR,Unknown,Unknown,Unknown,1 19503U 88085C   25068.57092145 -.00000074  00000+0  00000+0 0  9991,2 19503  65.5253 330.6249 0003944 227.0205 312.4474  2.13102125283736,2.13102125,0.0003944,MEO
19749,COSMOS 1987 [GLONASS],1989,675.82,-1.0,-,64.67,Inactive,0,MEO,Kazakhstan,Russia/USSR,Unknown,Unknown,Unknown,1 19749U 89001A   25069.43450323  .00000046  00000+0  00000+0 0  9992,2 19749  64.6737  88.1739 0005552 241.2694 228.1112  2.13073428281419,2.13073428,0.0005552,MEO
19750,COSMOS 1988 [GLONASS],1989,675.73,-1.0,-,64.69,Inactive,0,MEO,Kazakhstan,Russia/USSR,Unknown,Unknown,Unknown,1 19750U 89001B   25069.43389128  .00000046  00000+0  00000+0 0  9998,2 19750  64.6859  88.5102 0015762 222.6396 176.7730  2.13101817281407,2.13101817,0.0015762,MEO
20024,COSMOS 2022 [GLONASS],1989,675.73,-1.0,-,65.2,Inactive,0,MEO,Kazakhstan,Russia/USSR,Unknown,Unknown,Unknown,1 20024U 89039A   25069.09211443 -.00000065  00000+0  00000+0 0  9993,2 20024  65.2043 326.8117 0008154 215.9735 331.8115  2.13102174278446,2.13102174,0.0008154,MEO
20025,COSMOS 2023 [GLONASS],1989,675.73,-1.0,-,65.23,Inactive,0,MEO,Kazakhstan,Russia/USSR,Unknown,Unknown,Unknown,1 20025U 89039B   25068.83683376 -.00000066  00000+0  00000+0 0  9994,2 20025  65.2294 327.1067 0019211 200.0972 339.6008  2.13103761278368,2.13103761,0.0019211,MEO
20619,COSMOS 2079 [GLONASS],1990,675.73,-1.0,-,64.99,Inactive,0,MEO,Kazakhstan,Russia/USSR,Unknown,Unknown,Unknown,1 20619U 90045A   25067.42672598 -.00000065  00000+0  00000+0 0  9999,2 20619  64.9923 324.5121 0044808 206.8059 269.8368  2.13102908270833,2.13102908,0.0044808,MEO
20620,COSMOS 2080 [GLONASS],1990,675.73,-1.0,-,64.99,Inactive,0,MEO,Kazakhstan,Russia/USSR,Unknown,Unknown,Unknown,1 20620U 90045B   25069.50281475 -.00000058  00000+0  00000+0 0  9994,2 20620  64.9862 324.3882 0025267  32.4433 145.8352  2.13103038270725,2.13103038,0.0025267,MEO
