[
    {
        "OBJECT_NAME": "COSMOS 1946 [GLONASS]",
        "OBJECT_ID": "1988-043A",
        "EPOCH": "2025-03-08T23:56:47.336640",
        "MEAN_MOTION": 2.13103104,
        "ECCENTRICITY": 0.0003636,
        "INCLINATION": 64.71,
        "RA_OF_ASC_NODE": 89.519,
        "ARG_OF_PERICENTER": 92.1728,
        "MEAN_ANOMALY": 85.0162,
        "EPHEMERIS_TYPE": 0,
        "CLASSIFICATION_TYPE": "U",
        "NORAD_CAT_ID": 19163,
        "ELEMENT_SET_NO": 999,
        "REV_AT_EPOCH": 28568,
        "BSTAR": 0,
        "MEAN_MOTION_DOT": 3.7e-07,
        "MEAN_MOTION_DDOT": 0
    },
    {
        "OBJECT_NAME": "COSMOS 1947 [GLONASS]",
        "OBJECT_ID": "1988-043B",
        "EPOCH": "2025-03-08T06:56:23.499168",
        "MEAN_MOTION": 2.13103994,
        "ECCENTRICITY": 0.0024277,
        "INCLINATION": 64.706,
        "RA_OF_ASC_NODE": 89.464,
        "ARG_OF_PERICENTER": 223.892,
        "MEAN_ANOMALY": 195.6973,
        "EPHEMERIS_TYPE": 0,
        "CLASSIFICATION_TYPE": "U",
        "NORAD_CAT_ID": 19164,
        "ELEMENT_SET_NO": 999,
        "REV_AT_EPOCH": 28137,
        "BSTAR": 0,
        "MEAN_MOTION_DOT": 3.2e-07,
        "MEAN_MOTION_DDOT": 0
    },
    {
        "OBJECT_NAME": "COSMOS 1948 [GLONASS]",
        "OBJECT_ID": "1988-043C",
        "EPOCH": "2025-03-08T23:35:14.522208",
        "MEAN_MOTION": 2.13102978,
        "ECCENTRICITY": 0.0004458,
        "INCLINATION": 64.6973,
        "RA_OF_ASC_NODE": 89.2432,
        "ARG_OF_PERICENTER": 298.5374,
        "MEAN_ANOMALY": 195.118,
        "EPHEMERIS_TYPE": 0,
        "CLASSIFICATION_TYPE": "U",
        "NORAD_CAT_ID": 19165,
        "ELEMENT_SET_NO": 999,
        "REV_AT_EPOCH": 28609,
        "BSTAR": 0,
        "MEAN_MOTION_DOT": 3.7e-07,
        "MEAN_MOTION_DDOT": 0
    },
    {
        "OBJECT_NAME": "COSMOS 1970 [GLONASS]",
        "OBJECT_ID": "1988-085A",
        "EPOCH": "2025-03-10T10:30:08.709120",
        "MEAN_MOTION": 2.13102006,
        "ECCENTRICITY": 0.0010127,
        "INCLINATION": 65.4952,
        "RA_OF_ASC_NODE": 330.2309,
        "ARG_OF_PERICENTER": 42.3519,
        "MEAN_ANOMALY": 140.7111,
        "EPHEMERIS_TYPE": 0,
        "CLASSIFICATION_TYPE": "U",
        "NORAD_CAT_ID": 19501,
        "ELEMENT_SET_NO": 999,
        "REV_AT_EPOCH": 28389,
        "BSTAR": 0,
        "MEAN_MOTION_DOT": -7e-07,
        "MEAN_MOTION_DDOT": 0
    },
    {
        "OBJECT_NAME": "COSMOS 1972 [GLONASS]",
        "OBJECT_ID": "1988-085C",
        "EPOCH": "2025-03-09T13:42:07.613280",
        "MEAN_MOTION": 2.13102125,
        "ECCENTRICITY": 0.0003944,
        "INCLINATION": 65.5253,
        "RA_OF_ASC_NODE": 330.6249,
        "ARG_OF_PERICENTER": 227.0205,
        "MEAN_ANOMALY": 312.4474,
        "EPHEMERIS_TYPE": 0,
        "CLASSIFICATION_TYPE": "U",
        "NORAD_CAT_ID": 19503,
        "ELEMENT_SET_NO": 999,
        "REV_AT_EPOCH": 28373,
        "BSTAR": 0,
        "MEAN_MOTION_DOT": -7.4e-07,
        "MEAN_MOTION_DDOT": 0
    },
    {
        "OBJECT_NAME": "COSMOS 1987 [GLONASS]",
        "OBJECT_ID": "1989-001A",
        "EPOCH": "2025-03-10T10:25:41.079072",
        "MEAN_MOTION": 2.13073428,
        "ECCENTRICITY": 0.0005552,
        "INCLINATION": 64.6737,
        "RA_OF_ASC_NODE": 88.1739,
        "ARG_OF_PERICENTER": 241.2694,
        "MEAN_ANOMALY": 228.1112,
        "EPHEMERIS_TYPE": 0,
        "CLASSIFICATION_TYPE": "U",
        "NORAD_CAT_ID": 19749,
        "ELEMENT_SET_NO": 999,
        "REV_AT_EPOCH": 28141,
        "BSTAR": 0,
        "MEAN_MOTION_DOT": 4.6e-07,
        "MEAN_MOTION_DDOT": 0
    },
    {
        "OBJECT_NAME": "COSMOS 1988 [GLONASS]",
        "OBJECT_ID": "1989-001B",
        "EPOCH": "2025-03-10T10:24:48.206592",
        "MEAN_MOTION": 2.13101817,
        "ECCENTRICITY": 0.0015762,
        "INCLINATION": 64.6859,
        "RA_OF_ASC_NODE": 88.5102,
        "ARG_OF_PERICENTER": 222.6396,
        "MEAN_ANOMALY": 176.773,
        "EPHEMERIS_TYPE": 0,
        "CLASSIFICATION_TYPE": "U",
        "NORAD_CAT_ID": 19750,
        "ELEMENT_SET_NO": 999,
        "REV_AT_EPOCH": 28140,
        "BSTAR": 0,
        "MEAN_MOTION_DOT": 4.6e-07,
        "MEAN_MOTION_DDOT": 0
    },
    {
        "OBJECT_NAME": "COSMOS 2022 [GLONASS]",
        "OBJECT_ID": "1989-039A",
        "EPOCH": "2025-03-10T02:12:38.686752",
        "MEAN_MOTION": 2.13102174,
        "ECCENTRICITY": 0.0008154,
        "INCLINATION": 65.2043,
        "RA_OF_ASC_NODE": 326.8117,
        "ARG_OF_PERICENTER": 215.9735,
        "MEAN_ANOMALY": 331.8115,
        "EPHEMERIS_TYPE": 0,
        "CLASSIFICATION_TYPE": "U",
        "NORAD_CAT_ID": 20024,
        "ELEMENT_SET_NO": 999,
        "REV_AT_EPOCH": 27844,
        "BSTAR": 0,
        "MEAN_MOTION_DOT": -6.5e-07,
        "MEAN_MOTION_DDOT": 0
    },
    {
        "OBJECT_NAME": "COSMOS 2023 [GLONASS]",
        "OBJECT_ID": "1989-039B",
        "EPOCH": "2025-03-09T20:05:02.436864",
        "MEAN_MOTION": 2.13103761,
        "ECCENTRICITY": 0.0019211,
        "INCLINATION": 65.2294,
        "RA_OF_ASC_NODE": 327.1067,
        "ARG_OF_PERICENTER": 200.0972,
        "MEAN_ANOMALY": 339.6008,
        "EPHEMERIS_TYPE": 0,
        "CLASSIFICATION_TYPE": "U",
        "NORAD_CAT_ID": 20025,
        "ELEMENT_SET_NO": 999,
        "REV_AT_EPOCH": 27836,
        "BSTAR": 0,
        "MEAN_MOTION_DOT": -6.6e-07,
        "MEAN_MOTION_DDOT": 0
    },
    {
        "OBJECT_NAME": "COSMOS 2079 [GLONASS]",
        "OBJECT_ID": "1990-045A",
        "EPOCH": "2025-03-08T10:14:29.124672",
        "MEAN_MOTION": 2.13102908,
        "ECCENTRICITY": 0.0044808,
        "INCLINATION": 64.9923,
        "RA_OF_ASC_NODE": 324.5121,
        "ARG_OF_PERICENTER": 206.8059,
        "MEAN_ANOMALY": 269.8368,
        "EPHEMERIS_TYPE": 0,
        "CLASSIFICATION_TYPE": "U",
        "NORAD_CAT_ID": 20619,
        "ELEMENT_SET_NO": 999,
        "REV_AT_EPOCH": 27083,
        "BSTAR": 0,
        "MEAN_MOTION_DOT": -6.5e-07,
        "MEAN_MOTION_DDOT": 0
    },
    {
        "OBJECT_NAME": "COSMOS 2080 [GLONASS]",
        "OBJECT_ID": "1990-045B",
        "EPOCH": "2025-03-10T12:04:03.194400",
        "MEAN_MOTION": 2.13103038,
        "ECCENTRICITY": 0.0025267,
        "INCLINATION": 64.9862,
        "RA_OF_ASC_NODE": 324.3882,
        "ARG_OF_PERICENTER": 32.4433,
        "MEAN_ANOMALY": 145.8352,
        "EPHEMERIS_TYPE": 0,
        "CLASSIFICATION_TYPE": "U",
        "NORAD_CAT_ID": 20620,
        "ELEMENT_SET_NO": 999,
        "REV_AT_EPOCH": 27072,
        "BSTAR": 0,
        "MEAN_MOTION_DOT": -5.8e-07,
        "MEAN_MOTION_DDOT": 0
    }
]